[{"OBJECT_NAME":"MOHAMMED VI-B","OBJECT_ID":"2018-095A","EPOCH":"2026-03-28T21:39:57.447936","MEAN_MOTION":14.7707329,"ECCENTRICITY":0.00014,"INCLINATION":97.9385,"RA_OF_ASC_NODE":161.3443,"ARG_OF_PERICENTER":98.5744,"MEAN_ANOMALY":261.5625,"EPHEMERIS_TYPE":0,"CLASSIFICATION_TYPE":"U","NORAD_CAT_ID":43717,"ELEMENT_SET_NO":999,"REV_AT_EPOCH":39633,"BSTAR":0.00014824022,"MEAN_MOTION_DOT":9.96e-6,"MEAN_MOTION_DDOT":0},{"OBJECT_NAME":"HYSIS","OBJECT_ID":"2018-096A","EPOCH":"2026-03-28T21:16:49.012032","MEAN_MOTION":14.78603161,"ECCENTRICITY":0.00017723,"INCLINATION":97.9906,"RA_OF_ASC_NODE":155.2404,"ARG_OF_PERICENTER":69.5932,"MEAN_ANOMALY":290.5469,"EPHEMERIS_TYPE":0,"CLASSIFICATION_TYPE":"U","NORAD_CAT_ID":43719,"ELEMENT_SET_NO":999,"REV_AT_EPOCH":39555,"BSTAR":0.00019729979,"MEAN_MOTION_DOT":1.392e-5,"MEAN_MOTION_DDOT":0},{"OBJECT_NAME":"COSMOS 2530 (RODNIK-S 16)","OBJECT_ID":"2018-097A","EPOCH":"2026-03-28T21:05:59.615808","MEAN_MOTION":12.42878521,"ECCENTRICITY":0.00192151,"INCLINATION":82.5098,"RA_OF_ASC_NODE":272.1334,"ARG_OF_PERICENTER":208.9275,"MEAN_ANOMALY":151.0741,"EPHEMERIS_TYPE":0,"CLASSIFICATION_TYPE":"U","NORAD_CAT_ID":43751,"ELEMENT_SET_NO":999,"REV_AT_EPOCH":33231,"BSTAR":-0.00054459807,"MEAN_MOTION_DOT":-6.6e-7,"MEAN_MOTION_DDOT":0},{"OBJECT_NAME":"COSMOS 2531 (RODNIK-S 17)","OBJECT_ID":"2018-097B","EPOCH":"2026-03-28T21:40:58.882656","MEAN_MOTION":12.42910191,"ECCENTRICITY":0.00161263,"INCLINATION":82.5144,"RA_OF_ASC_NODE":273.1502,"ARG_OF_PERICENTER":228.0859,"MEAN_ANOMALY":131.8846,"EPHEMERIS_TYPE":0,"CLASSIFICATION_TYPE":"U","NORAD_CAT_ID":43752,"ELEMENT_SET_NO":999,"REV_AT_EPOCH":33233,"BSTAR":0.00016001654,"MEAN_MOTION_DOT":3.2e-7,"MEAN_MOTION_DDOT":0},{"OBJECT_NAME":"COSMOS 2532 (RODNIK-S 18)","OBJECT_ID":"2018-097C","EPOCH":"2026-03-28T22:21:23.258880","MEAN_MOTION":12.42906925,"ECCENTRICITY":0.00174642,"INCLINATION":82.5087,"RA_OF_ASC_NODE":271.9547,"ARG_OF_PERICENTER":230.4264,"MEAN_ANOMALY":129.5274,"EPHEMERIS_TYPE":0,"CLASSIFICATION_TYPE":"U","NORAD_CAT_ID":43753,"ELEMENT_SET_NO":999,"REV_AT_EPOCH":33230,"BSTAR":0.00035563015,"MEAN_MOTION_DOT":5.9e-7,"MEAN_MOTION_DDOT":0},{"OBJECT_NAME":"MINXSS-2","OBJECT_ID":"2018-099A","EPOCH":"2026-03-28T17:49:33.398688","MEAN_MOTION":15.41629295,"ECCENTRICITY":0.00087291,"INCLINATION":97.4598,"RA_OF_ASC_NODE":161.9763,"ARG_OF_PERICENTER":188.3452,"MEAN_ANOMALY":171.7651,"EPHEMERIS_TYPE":0,"CLASSIFICATION_TYPE":"U","NORAD_CAT_ID":43758,"ELEMENT_SET_NO":999,"REV_AT_EPOCH":40171,"BSTAR":0.00098162101,"MEAN_MOTION_DOT":0.00041462,"MEAN_MOTION_DDOT":0},{"OBJECT_NAME":"SIRION PATHFINDER-2","OBJECT_ID":"2018-099B","EPOCH":"2026-03-28T21:19:56.096544","MEAN_MOTION":15.13763678,"ECCENTRICITY":0.00081724,"INCLINATION":97.4355,"RA_OF_ASC_NODE":138.862,"ARG_OF_PERICENTER":208.6169,"MEAN_ANOMALY":151.4616,"EPHEMERIS_TYPE":0,"CLASSIFICATION_TYPE":"U","NORAD_CAT_ID":43759,"ELEMENT_SET_NO":999,"REV_AT_EPOCH":40047,"BSTAR":0.00038694607,"MEAN_MOTION_DOT":6.921e-5,"MEAN_MOTION_DDOT":0},{"OBJECT_NAME":"AISTECHSAT 2","OBJECT_ID":"2018-099L","EPOCH":"2026-03-28T17:01:27.736320","MEAN_MOTION":15.14579459,"ECCENTRICITY":0.0004167,"INCLINATION":97.4398,"RA_OF_ASC_NODE":137.5157,"ARG_OF_PERICENTER":198.0001,"MEAN_ANOMALY":162.1084,"EPHEMERIS_TYPE":0,"CLASSIFICATION_TYPE":"U","NORAD_CAT_ID":43768,"ELEMENT_SET_NO":999,"REV_AT_EPOCH":40009,"BSTAR":0.00033982,"MEAN_MOTION_DOT":6.207e-5,"MEAN_MOTION_DDOT":0},{"OBJECT_NAME":"FOX-1CLIFF (AO-95)","OBJECT_ID":"2018-099N","EPOCH":"2026-03-28T14:39:01.292832","MEAN_MOTION":15.24897321,"ECCENTRICITY":0.0007427,"INCLINATION":97.4474,"RA_OF_ASC_NODE":148.2295,"ARG_OF_PERICENTER":269.3369,"MEAN_ANOMALY":90.7018,"EPHEMERIS_TYPE":0,"CLASSIFICATION_TYPE":"U","NORAD_CAT_ID":43770,"ELEMENT_SET_NO":999,"REV_AT_EPOCH":40093,"BSTAR":0.00056983,"MEAN_MOTION_DOT":0.00014127,"MEAN_MOTION_DDOT":0},{"OBJECT_NAME":"2018-099Q","OBJECT_ID":"2018-099Q","EPOCH":"2026-03-28T18:22:11.485344","MEAN_MOTION":15.61431076,"ECCENTRICITY":0.00021971,"INCLINATION":97.4261,"RA_OF_ASC_NODE":164.0203,"ARG_OF_PERICENTER":176.0963,"MEAN_ANOMALY":184.0312,"EPHEMERIS_TYPE":0,"CLASSIFICATION_TYPE":"U","NORAD_CAT_ID":43772,"ELEMENT_SET_NO":999,"REV_AT_EPOCH":40202,"BSTAR":0.0013891671,"MEAN_MOTION_DOT":0.00119954,"MEAN_MOTION_DDOT":0},{"OBJECT_NAME":"RANGE-A","OBJECT_ID":"2018-099R","EPOCH":"2026-03-28T16:37:03.081792","MEAN_MOTION":15.12657982,"ECCENTRICITY":0.00087924,"INCLINATION":97.4071,"RA_OF_ASC_NODE":132.6292,"ARG_OF_PERICENTER":264.0803,"MEAN_ANOMALY":95.9426,"EPHEMERIS_TYPE":0,"CLASSIFICATION_TYPE":"U","NORAD_CAT_ID":43773,"ELEMENT_SET_NO":999,"REV_AT_EPOCH":40032,"BSTAR":0.00029251387,"MEAN_MOTION_DOT":5.056e-5,"MEAN_MOTION_DDOT":0},{"OBJECT_NAME":"SNUSAT-2","OBJECT_ID":"2018-099AA","EPOCH":"2026-03-28T16:30:21.510144","MEAN_MOTION":15.20525313,"ECCENTRICITY":0.00098972,"INCLINATION":97.4161,"RA_OF_ASC_NODE":142.3474,"ARG_OF_PERICENTER":209.4031,"MEAN_ANOMALY":150.6649,"EPHEMERIS_TYPE":0,"CLASSIFICATION_TYPE":"U","NORAD_CAT_ID":43782,"ELEMENT_SET_NO":999,"REV_AT_EPOCH":40079,"BSTAR":0.00046967164,"MEAN_MOTION_DOT":0.00010222,"MEAN_MOTION_DDOT":0},{"OBJECT_NAME":"SNUGLITE","OBJECT_ID":"2018-099AC","EPOCH":"2026-03-28T21:32:07.665216","MEAN_MOTION":15.25341472,"ECCENTRICITY":0.00028308,"INCLINATION":97.3969,"RA_OF_ASC_NODE":143.0378,"ARG_OF_PERICENTER":180.0095,"MEAN_ANOMALY":180.1143,"EPHEMERIS_TYPE":0,"CLASSIFICATION_TYPE":"U","NORAD_CAT_ID":43784,"ELEMENT_SET_NO":999,"REV_AT_EPOCH":40107,"BSTAR":0.000606588,"MEAN_MOTION_DOT":0.00015239,"MEAN_MOTION_DDOT":0},{"OBJECT_NAME":"ITASAT","OBJECT_ID":"2018-099AE","EPOCH":"2026-03-28T16:41:05.394048","MEAN_MOTION":15.17972383,"ECCENTRICITY":0.00112063,"INCLINATION":97.4132,"RA_OF_ASC_NODE":140.838,"ARG_OF_PERICENTER":272.6933,"MEAN_ANOMALY":87.3018,"EPHEMERIS_TYPE":0,"CLASSIFICATION_TYPE":"U","NORAD_CAT_ID":43786,"ELEMENT_SET_NO":999,"REV_AT_EPOCH":40069,"BSTAR":0.00043602871,"MEAN_MOTION_DOT":8.809e-5,"MEAN_MOTION_DDOT":0},{"OBJECT_NAME":"EAGLET-I","OBJECT_ID":"2018-099AJ","EPOCH":"2026-03-28T16:15:59.342688","MEAN_MOTION":15.12289861,"ECCENTRICITY":0.00096705,"INCLINATION":97.4334,"RA_OF_ASC_NODE":139.4775,"ARG_OF_PERICENTER":262.5141,"MEAN_ANOMALY":97.4992,"EPHEMERIS_TYPE":0,"CLASSIFICATION_TYPE":"U","NORAD_CAT_ID":43790,"ELEMENT_SET_NO":999,"REV_AT_EPOCH":40016,"BSTAR":0.00030527887,"MEAN_MOTION_DOT":5.226e-5,"MEAN_MOTION_DDOT":0},{"OBJECT_NAME":"ESEO","OBJECT_ID":"2018-099AL","EPOCH":"2026-03-28T16:24:42.376320","MEAN_MOTION":15.03982347,"ECCENTRICITY":0.0010444,"INCLINATION":97.4067,"RA_OF_ASC_NODE":128.4948,"ARG_OF_PERICENTER":244.9991,"MEAN_ANOMALY":115.0151,"EPHEMERIS_TYPE":0,"CLASSIFICATION_TYPE":"U","NORAD_CAT_ID":43792,"ELEMENT_SET_NO":999,"REV_AT_EPOCH":39970,"BSTAR":8.8332e-5,"MEAN_MOTION_DOT":1.163e-5,"MEAN_MOTION_DDOT":0}]
