MOHAMMED VI-B           
1 43717U 18095A   26087.90274824  .00000996  00000+0  14824-3 0  9999
2 43717  97.9385 161.3443 0001400  98.5744 261.5625 14.77073290396330
HYSIS                   
1 43719U 18096A   26087.88667838  .00001392  00000+0  19730-3 0  9992
2 43719  97.9906 155.2404 0001772  69.5932 290.5469 14.78603161395557
COSMOS 2530 (RODNIK-S *)
1 43751U 18097A   26087.87916222 -.00000066  00000+0 -54460-3 0  9990
2 43751  82.5098 272.1334 0019215 208.9275 151.0741 12.42878521332318
COSMOS 2531 (RODNIK-S *)
1 43752U 18097B   26087.90345929  .00000032  00000+0  16002-3 0  9996
2 43752  82.5144 273.1502 0016126 228.0859 131.8846 12.42910191332332
COSMOS 2532 (RODNIK-S *)
1 43753U 18097C   26087.93151920  .00000059  00000+0  35563-3 0  9998
2 43753  82.5087 271.9547 0017464 230.4264 129.5274 12.42906925332303
MINXSS-2                
1 43758U 18099A   26087.74274767  .00041462  00000+0  98162-3 0  9996
2 43758  97.4598 161.9763 0008729 188.3452 171.7651 15.41629295401716
SIRION PATHFINDER-2     
1 43759U 18099B   26087.88884371  .00006921  00000+0  38695-3 0  9996
2 43759  97.4355 138.8620 0008172 208.6169 151.4616 15.13763678400477
AISTECHSAT 2            
1 43768U 18099L   26087.70934880  .00006207  00000+0  33982-3 0  9999
2 43768  97.4398 137.5157 0004167 198.0001 162.1084 15.14579459400091
FOX-1CLIFF (AO-95)      
1 43770U 18099N   26087.61043163  .00014127  00000+0  56983-3 0  9993
2 43770  97.4474 148.2295 0007427 269.3369  90.7018 15.24897321400930
2018-099Q               
1 43772U 18099Q   26087.76541071  .00119954  00000+0  13892-2 0  9997
2 43772  97.4261 164.0203 0002197 176.0963 184.0312 15.61431076402022
RANGE-A                 
1 43773U 18099R   26087.69239678  .00005056  00000+0  29251-3 0  9991
2 43773  97.4071 132.6292 0008792 264.0803  95.9426 15.12657982400328
SNUSAT-2                
1 43782U 18099AA  26087.68774896  .00010222  00000+0  46967-3 0  9990
2 43782  97.4161 142.3474 0009897 209.4031 150.6649 15.20525313400799
SNUGLITE                
1 43784U 18099AC  26087.89731094  .00015239  00000+0  60659-3 0  9995
2 43784  97.3969 143.0378 0002830 180.0095 180.1143 15.25341472401077
ITASAT                  
1 43786U 18099AE  26087.69520132  .00008809  00000+0  43603-3 0  9999
2 43786  97.4132 140.8380 0011206 272.6933  87.3018 15.17972383400694
EAGLET-I                
1 43790U 18099AJ  26087.67777017  .00005226  00000+0  30528-3 0  9990
2 43790  97.4334 139.4775 0009670 262.5141  97.4992 15.12289861400168
ESEO                    
1 43792U 18099AL  26087.68382380  .00001163  00000+0  88332-4 0  9991
2 43792  97.4067 128.4948 0010444 244.9991 115.0151 15.03982347399701
